CCSDS_OMM_VERS = 2.0
CREATION_DATE  = 
ORIGINATOR     = 

OBJECT_NAME    = COSMOS 1933
OBJECT_ID      = 1988-020A
CENTER_NAME    = EARTH
REF_FRAME      = TEME
TIME_SYSTEM    = UTC
MEAN_ELEMENT_THEORY = SGP/SGP4

EPOCH          = 2026-02-23T06:53:38.363712
MEAN_MOTION    = 15.17841971
ECCENTRICITY   = .0002783
INCLINATION    = 82.5101
RA_OF_ASC_NODE = 265.1637
ARG_OF_PERICENTER = 244.5657
MEAN_ANOMALY   = 115.5289

EPHEMERIS_TYPE = 0
CLASSIFICATION_TYPE = U
NORAD_CAT_ID   = 18958
ELEMENT_SET_NO = 999
REV_AT_EPOCH   = 4804
BSTAR          = .18968E-3
MEAN_MOTION_DOT = .3868E-4
MEAN_MOTION_DDOT = 0

CCSDS_OMM_VERS = 2.0
CREATION_DATE  = 
ORIGINATOR     = 

OBJECT_NAME    = SL-3 R/B
OBJECT_ID      = 1988-032B
CENTER_NAME    = EARTH
REF_FRAME      = TEME
TIME_SYSTEM    = UTC
MEAN_ELEMENT_THEORY = SGP/SGP4

EPOCH          = 2026-02-23T09:06:28.242720
MEAN_MOTION    = 15.19714364
ECCENTRICITY   = .0024186
INCLINATION    = 97.5175
RA_OF_ASC_NODE = 37.6859
ARG_OF_PERICENTER = 285.4006
MEAN_ANOMALY   = 74.4557

EPHEMERIS_TYPE = 0
CLASSIFICATION_TYPE = U
NORAD_CAT_ID   = 19046
ELEMENT_SET_NO = 999
REV_AT_EPOCH   = 4993
BSTAR          = .31235E-3
MEAN_MOTION_DOT = .6653E-4
MEAN_MOTION_DDOT = 0

CCSDS_OMM_VERS = 2.0
CREATION_DATE  = 
ORIGINATOR     = 

OBJECT_NAME    = SL-16 R/B
OBJECT_ID      = 1988-039B
CENTER_NAME    = EARTH
REF_FRAME      = TEME
TIME_SYSTEM    = UTC
MEAN_ELEMENT_THEORY = SGP/SGP4

EPOCH          = 2026-02-23T09:28:07.250304
MEAN_MOTION    = 14.19613589
ECCENTRICITY   = .0021921
INCLINATION    = 71.0135
RA_OF_ASC_NODE = 98.7778
ARG_OF_PERICENTER = 355.6300
MEAN_ANOMALY   = 4.4630

EPHEMERIS_TYPE = 0
CLASSIFICATION_TYPE = U
NORAD_CAT_ID   = 19120
ELEMENT_SET_NO = 999
REV_AT_EPOCH   = 95635
BSTAR          = -.24812E-4
MEAN_MOTION_DOT = -.101E-5
MEAN_MOTION_DDOT = 0

CCSDS_OMM_VERS = 2.0
CREATION_DATE  = 
ORIGINATOR     = 

OBJECT_NAME    = COSMOS 1953
OBJECT_ID      = 1988-050A
CENTER_NAME    = EARTH
REF_FRAME      = TEME
TIME_SYSTEM    = UTC
MEAN_ELEMENT_THEORY = SGP/SGP4

EPOCH          = 2026-02-23T06:53:53.659104
MEAN_MOTION    = 15.28227721
ECCENTRICITY   = .0011617
INCLINATION    = 82.5101
RA_OF_ASC_NODE = 172.7233
ARG_OF_PERICENTER = 170.1328
MEAN_ANOMALY   = 190.0142

EPHEMERIS_TYPE = 0
CLASSIFICATION_TYPE = U
NORAD_CAT_ID   = 19210
ELEMENT_SET_NO = 999
REV_AT_EPOCH   = 3558
BSTAR          = .37037E-3
MEAN_MOTION_DOT = .10239E-3
MEAN_MOTION_DDOT = 0

CCSDS_OMM_VERS = 2.0
CREATION_DATE  = 
ORIGINATOR     = 

OBJECT_NAME    = SL-8 R/B
OBJECT_ID      = 1988-053B
CENTER_NAME    = EARTH
REF_FRAME      = TEME
TIME_SYSTEM    = UTC
MEAN_ELEMENT_THEORY = SGP/SGP4

EPOCH          = 2026-02-23T12:47:50.875008
MEAN_MOTION    = 14.38906535
ECCENTRICITY   = .0021011
INCLINATION    = 74.0481
RA_OF_ASC_NODE = 138.5594
ARG_OF_PERICENTER = 320.0667
MEAN_ANOMALY   = 50.9084

EPHEMERIS_TYPE = 0
CLASSIFICATION_TYPE = U
NORAD_CAT_ID   = 19257
ELEMENT_SET_NO = 999
REV_AT_EPOCH   = 97456
BSTAR          = .87748E-4
MEAN_MOTION_DOT = .244E-5
MEAN_MOTION_DDOT = 0

CCSDS_OMM_VERS = 2.0
CREATION_DATE  = 
ORIGINATOR     = 

OBJECT_NAME    = COSMOS 1975
OBJECT_ID      = 1988-093A
CENTER_NAME    = EARTH
REF_FRAME      = TEME
TIME_SYSTEM    = UTC
MEAN_ELEMENT_THEORY = SGP/SGP4

EPOCH          = 2026-02-23T06:02:16.969920
MEAN_MOTION    = 15.27811656
ECCENTRICITY   = .0010871
INCLINATION    = 82.5205
RA_OF_ASC_NODE = 132.1736
ARG_OF_PERICENTER = 215.1108
MEAN_ANOMALY   = 144.9416

EPHEMERIS_TYPE = 0
CLASSIFICATION_TYPE = U
NORAD_CAT_ID   = 19573
ELEMENT_SET_NO = 999
REV_AT_EPOCH   = 1720
BSTAR          = .3136E-3
MEAN_MOTION_DOT = .8562E-4
MEAN_MOTION_DDOT = 0

CCSDS_OMM_VERS = 2.0
CREATION_DATE  = 
ORIGINATOR     = 

OBJECT_NAME    = SL-14 R/B
OBJECT_ID      = 1988-093B
CENTER_NAME    = EARTH
REF_FRAME      = TEME
TIME_SYSTEM    = UTC
MEAN_ELEMENT_THEORY = SGP/SGP4

EPOCH          = 2026-02-23T11:15:50.169024
MEAN_MOTION    = 14.85637401
ECCENTRICITY   = .0022335
INCLINATION    = 82.5282
RA_OF_ASC_NODE = 55.3956
ARG_OF_PERICENTER = 85.6023
MEAN_ANOMALY   = 74.1177

EPHEMERIS_TYPE = 0
CLASSIFICATION_TYPE = U
NORAD_CAT_ID   = 19574
ELEMENT_SET_NO = 999
REV_AT_EPOCH   = 99892
BSTAR          = .5496E-4
MEAN_MOTION_DOT = .503E-5
MEAN_MOTION_DDOT = 0

CCSDS_OMM_VERS = 2.0
CREATION_DATE  = 
ORIGINATOR     = 

OBJECT_NAME    = SL-16 R/B
OBJECT_ID      = 1988-102B
CENTER_NAME    = EARTH
REF_FRAME      = TEME
TIME_SYSTEM    = UTC
MEAN_ELEMENT_THEORY = SGP/SGP4

EPOCH          = 2026-02-23T08:29:55.402080
MEAN_MOTION    = 14.16151411
ECCENTRICITY   = .0013146
INCLINATION    = 70.9999
RA_OF_ASC_NODE = 181.6571
ARG_OF_PERICENTER = 23.5521
MEAN_ANOMALY   = 336.6201

EPHEMERIS_TYPE = 0
CLASSIFICATION_TYPE = U
NORAD_CAT_ID   = 19650
ELEMENT_SET_NO = 999
REV_AT_EPOCH   = 92486
BSTAR          = -.79793E-4
MEAN_MOTION_DOT = -.206E-5
MEAN_MOTION_DDOT = 0

CCSDS_OMM_VERS = 2.0
CREATION_DATE  = 
ORIGINATOR     = 

OBJECT_NAME    = INTERCOSMOS 24
OBJECT_ID      = 1989-080A
CENTER_NAME    = EARTH
REF_FRAME      = TEME
TIME_SYSTEM    = UTC
MEAN_ELEMENT_THEORY = SGP/SGP4

EPOCH          = 2026-02-23T10:13:29.068032
MEAN_MOTION    = 12.59534377
ECCENTRICITY   = .1187152
INCLINATION    = 82.6045
RA_OF_ASC_NODE = 113.6912
ARG_OF_PERICENTER = 325.9581
MEAN_ANOMALY   = 27.0534

EPHEMERIS_TYPE = 0
CLASSIFICATION_TYPE = U
NORAD_CAT_ID   = 20261
ELEMENT_SET_NO = 999
REV_AT_EPOCH   = 66500
BSTAR          = .18449E-3
MEAN_MOTION_DOT = .626E-5
MEAN_MOTION_DDOT = 0

CCSDS_OMM_VERS = 2.0
CREATION_DATE  = 
ORIGINATOR     = 

OBJECT_NAME    = SL-14 R/B
OBJECT_ID      = 1989-080C
CENTER_NAME    = EARTH
REF_FRAME      = TEME
TIME_SYSTEM    = UTC
MEAN_ELEMENT_THEORY = SGP/SGP4

EPOCH          = 2026-02-23T07:29:46.029984
MEAN_MOTION    = 12.50473013
ECCENTRICITY   = .122997
INCLINATION    = 82.5965
RA_OF_ASC_NODE = 182.4136
ARG_OF_PERICENTER = 217.6120
MEAN_ANOMALY   = 133.2489

EPHEMERIS_TYPE = 0
CLASSIFICATION_TYPE = U
NORAD_CAT_ID   = 20262
ELEMENT_SET_NO = 999
REV_AT_EPOCH   = 65835
BSTAR          = .17826E-3
MEAN_MOTION_DOT = .596E-5
MEAN_MOTION_DDOT = 0

CCSDS_OMM_VERS = 2.0
CREATION_DATE  = 
ORIGINATOR     = 

OBJECT_NAME    = DELTA 1 R/B
OBJECT_ID      = 1989-089B
CENTER_NAME    = EARTH
REF_FRAME      = TEME
TIME_SYSTEM    = UTC
MEAN_ELEMENT_THEORY = SGP/SGP4

EPOCH          = 2026-02-23T08:13:28.875648
MEAN_MOTION    = 14.50649852
ECCENTRICITY   = .0069458
INCLINATION    = 97.0714
RA_OF_ASC_NODE = 264.0624
ARG_OF_PERICENTER = 166.8267
MEAN_ANOMALY   = 193.4765

EPHEMERIS_TYPE = 0
CLASSIFICATION_TYPE = U
NORAD_CAT_ID   = 20323
ELEMENT_SET_NO = 999
REV_AT_EPOCH   = 89365
BSTAR          = .86042E-4
MEAN_MOTION_DOT = .313E-5
MEAN_MOTION_DDOT = 0

CCSDS_OMM_VERS = 2.0
CREATION_DATE  = 
ORIGINATOR     = 

OBJECT_NAME    = ARIANE 40 R/B
OBJECT_ID      = 1990-005H
CENTER_NAME    = EARTH
REF_FRAME      = TEME
TIME_SYSTEM    = UTC
MEAN_ELEMENT_THEORY = SGP/SGP4

EPOCH          = 2026-02-23T10:17:30.106752
MEAN_MOTION    = 14.39860005
ECCENTRICITY   = .0009088
INCLINATION    = 98.3117
RA_OF_ASC_NODE = 115.5130
ARG_OF_PERICENTER = 244.1712
MEAN_ANOMALY   = 115.8540

EPHEMERIS_TYPE = 0
CLASSIFICATION_TYPE = U
NORAD_CAT_ID   = 20443
ELEMENT_SET_NO = 999
REV_AT_EPOCH   = 89075
BSTAR          = .9082E-4
MEAN_MOTION_DOT = .243E-5
MEAN_MOTION_DDOT = 0

